STARLINK-32759          
1 62751U 25014S   25356.07108721  .00021954  00000+0  80411-3 0  9997
2 62751  43.0000 236.4638 0000877 244.4115 115.6647 15.27614593 51341
STARLINK-32756          
1 62752U 25014T   25355.68953316  .00014876  00000+0  54877-3 0  9994
2 62752  42.9982 235.2894 0001318 269.4987  90.5714 15.27593572 51322
STARLINK-32751          
1 62753U 25014U   25356.07542316  .00024526  00000+0  89671-3 0  9996
2 62753  42.9991 233.0275 0001630 271.9152  88.1513 15.27620564 51389
STARLINK-32740          
1 62754U 25014V   25356.02145584  .00035204  00000+0  12819-2 0  9992
2 62754  42.9992 232.6242 0001620 259.4390 100.6279 15.27600201 51389
STARLINK-32745          
1 62755U 25014W   25356.06386029  .00031910  00000+0  11637-2 0  9995
2 62755  43.0000 232.9416 0000702 315.0507  45.0288 15.27590900 51383
STARLINK-33596          
1 62758U 25015A   25356.20292937  .00019864  00000+0  68051-3 0  9996
2 62758  53.1601 322.6530 0001204  88.0099 272.1039 15.30222468 52541
STARLINK-33589          
1 62759U 25015B   25356.20082118  .00039760  00000+0  13467-2 0  9992
2 62759  53.1610 322.6430 0001323  89.7353 270.3799 15.30215233 51852
STARLINK-33575          
1 62760U 25015C   25356.18393158  .00034157  00000+0  11590-2 0  9990
2 62760  53.1618 322.5059 0001316 108.0145 252.0999 15.30228923 51853
STARLINK-33584          
1 62761U 25015D   25356.23553201  .00037201  00000+0  12610-2 0  9991
2 62761  53.1631 322.1480 0001105  92.7943 267.3184 15.30221907 52620
STARLINK-33577          
1 62762U 25015E   25356.21547979  .00036223  00000+0  12286-2 0  9997
2 62762  53.1611 322.0197 0001139  97.4192 262.6938 15.30214134 52627
STARLINK-33597          
1 62763U 25015F   25356.20609691  .00025541  00000+0  87110-3 0  9997
2 62763  53.1600 322.6697 0001346  89.2922 270.8233 15.30215424 52618
STARLINK-33579          
1 62764U 25015G   25356.14489106  .00021371  00000+0  73137-3 0  9999
2 62764  53.1607 322.2933 0001153  85.8328 274.2804 15.30210371 52611
STARLINK-33592          
1 62765U 25015H   25356.31771315  .00028901  00000+0  98431-3 0  9995
2 62765  53.1621 321.9468 0000983  63.8263 296.2839 15.30193859 52502
STARLINK-33595          
1 62766U 25015J   25356.22708809  .00031262  00000+0  10624-2 0  9995
2 62766  53.1613 322.0965 0001154  94.9255 265.1877 15.30223668 52627
STARLINK-33572          
1 62767U 25015K   25356.17762643  .00044523  00000+0  15061-2 0  9990
2 62767  53.1624 322.4967 0001887  78.7155 281.4058 15.30204706 52554
STARLINK-33601          
1 62768U 25015L   25356.23658605  .00039161  00000+0  13263-2 0  9994
2 62768  53.1631 322.1542 0000920  96.7358 263.3748 15.30225694 52623
