[{"OBJECT_NAME":"STARLINK-32759","OBJECT_ID":"2025-014S","EPOCH":"2025-12-22T01:42:21.934944","MEAN_MOTION":15.27614593,"ECCENTRICITY":8.774e-5,"INCLINATION":43,"RA_OF_ASC_NODE":236.4638,"ARG_OF_PERICENTER":244.4115,"MEAN_ANOMALY":115.6647,"EPHEMERIS_TYPE":0,"CLASSIFICATION_TYPE":"U","NORAD_CAT_ID":62751,"ELEMENT_SET_NO":999,"REV_AT_EPOCH":5134,"BSTAR":0.00080410915,"MEAN_MOTION_DOT":0.00021954,"MEAN_MOTION_DDOT":0},{"OBJECT_NAME":"STARLINK-32756","OBJECT_ID":"2025-014T","EPOCH":"2025-12-21T16:32:55.665024","MEAN_MOTION":15.27593572,"ECCENTRICITY":0.00013184,"INCLINATION":42.9982,"RA_OF_ASC_NODE":235.2894,"ARG_OF_PERICENTER":269.4987,"MEAN_ANOMALY":90.5714,"EPHEMERIS_TYPE":0,"CLASSIFICATION_TYPE":"U","NORAD_CAT_ID":62752,"ELEMENT_SET_NO":999,"REV_AT_EPOCH":5132,"BSTAR":0.00054877492,"MEAN_MOTION_DOT":0.00014876,"MEAN_MOTION_DDOT":0},{"OBJECT_NAME":"STARLINK-32751","OBJECT_ID":"2025-014U","EPOCH":"2025-12-22T01:48:36.561024","MEAN_MOTION":15.27620564,"ECCENTRICITY":0.00016301,"INCLINATION":42.9991,"RA_OF_ASC_NODE":233.0275,"ARG_OF_PERICENTER":271.9152,"MEAN_ANOMALY":88.1513,"EPHEMERIS_TYPE":0,"CLASSIFICATION_TYPE":"U","NORAD_CAT_ID":62753,"ELEMENT_SET_NO":999,"REV_AT_EPOCH":5138,"BSTAR":0.00089671375,"MEAN_MOTION_DOT":0.00024526,"MEAN_MOTION_DDOT":0},{"OBJECT_NAME":"STARLINK-32740","OBJECT_ID":"2025-014V","EPOCH":"2025-12-22T00:30:53.784576","MEAN_MOTION":15.27600201,"ECCENTRICITY":0.00016202,"INCLINATION":42.9992,"RA_OF_ASC_NODE":232.6242,"ARG_OF_PERICENTER":259.439,"MEAN_ANOMALY":100.6279,"EPHEMERIS_TYPE":0,"CLASSIFICATION_TYPE":"U","NORAD_CAT_ID":62754,"ELEMENT_SET_NO":999,"REV_AT_EPOCH":5138,"BSTAR":0.0012819299,"MEAN_MOTION_DOT":0.00035204,"MEAN_MOTION_DDOT":0},{"OBJECT_NAME":"STARLINK-32745","OBJECT_ID":"2025-014W","EPOCH":"2025-12-22T01:31:57.529056","MEAN_MOTION":15.275909,"ECCENTRICITY":7.023e-5,"INCLINATION":43,"RA_OF_ASC_NODE":232.9416,"ARG_OF_PERICENTER":315.0507,"MEAN_ANOMALY":45.0288,"EPHEMERIS_TYPE":0,"CLASSIFICATION_TYPE":"U","NORAD_CAT_ID":62755,"ELEMENT_SET_NO":999,"REV_AT_EPOCH":5138,"BSTAR":0.0011637108,"MEAN_MOTION_DOT":0.0003191,"MEAN_MOTION_DDOT":0},{"OBJECT_NAME":"STARLINK-33596","OBJECT_ID":"2025-015A","EPOCH":"2025-12-22T04:52:13.097568","MEAN_MOTION":15.30222468,"ECCENTRICITY":0.00012041,"INCLINATION":53.1601,"RA_OF_ASC_NODE":322.653,"ARG_OF_PERICENTER":88.0099,"MEAN_ANOMALY":272.1039,"EPHEMERIS_TYPE":0,"CLASSIFICATION_TYPE":"U","NORAD_CAT_ID":62758,"ELEMENT_SET_NO":999,"REV_AT_EPOCH":5254,"BSTAR":0.00068051434,"MEAN_MOTION_DOT":0.00019864,"MEAN_MOTION_DDOT":0},{"OBJECT_NAME":"STARLINK-33589","OBJECT_ID":"2025-015B","EPOCH":"2025-12-22T04:49:10.949952","MEAN_MOTION":15.30215233,"ECCENTRICITY":0.0001323,"INCLINATION":53.161,"RA_OF_ASC_NODE":322.643,"ARG_OF_PERICENTER":89.7353,"MEAN_ANOMALY":270.3799,"EPHEMERIS_TYPE":0,"CLASSIFICATION_TYPE":"U","NORAD_CAT_ID":62759,"ELEMENT_SET_NO":999,"REV_AT_EPOCH":5185,"BSTAR":0.0013467376,"MEAN_MOTION_DOT":0.0003976,"MEAN_MOTION_DDOT":0},{"OBJECT_NAME":"STARLINK-33575","OBJECT_ID":"2025-015C","EPOCH":"2025-12-22T04:24:51.688512","MEAN_MOTION":15.30228923,"ECCENTRICITY":0.00013165,"INCLINATION":53.1618,"RA_OF_ASC_NODE":322.5059,"ARG_OF_PERICENTER":108.0145,"MEAN_ANOMALY":252.0999,"EPHEMERIS_TYPE":0,"CLASSIFICATION_TYPE":"U","NORAD_CAT_ID":62760,"ELEMENT_SET_NO":999,"REV_AT_EPOCH":5185,"BSTAR":0.0011590355,"MEAN_MOTION_DOT":0.00034157,"MEAN_MOTION_DDOT":0},{"OBJECT_NAME":"STARLINK-33584","OBJECT_ID":"2025-015D","EPOCH":"2025-12-22T05:39:09.965664","MEAN_MOTION":15.30221907,"ECCENTRICITY":0.00011057,"INCLINATION":53.1631,"RA_OF_ASC_NODE":322.148,"ARG_OF_PERICENTER":92.7943,"MEAN_ANOMALY":267.3184,"EPHEMERIS_TYPE":0,"CLASSIFICATION_TYPE":"U","NORAD_CAT_ID":62761,"ELEMENT_SET_NO":999,"REV_AT_EPOCH":5262,"BSTAR":0.0012610288,"MEAN_MOTION_DOT":0.00037201,"MEAN_MOTION_DDOT":0},{"OBJECT_NAME":"STARLINK-33577","OBJECT_ID":"2025-015E","EPOCH":"2025-12-22T05:10:17.453856","MEAN_MOTION":15.30214134,"ECCENTRICITY":0.00011397,"INCLINATION":53.1611,"RA_OF_ASC_NODE":322.0197,"ARG_OF_PERICENTER":97.4192,"MEAN_ANOMALY":262.6938,"EPHEMERIS_TYPE":0,"CLASSIFICATION_TYPE":"U","NORAD_CAT_ID":62762,"ELEMENT_SET_NO":999,"REV_AT_EPOCH":5262,"BSTAR":0.0012286329,"MEAN_MOTION_DOT":0.00036223,"MEAN_MOTION_DDOT":0},{"OBJECT_NAME":"STARLINK-33597","OBJECT_ID":"2025-015F","EPOCH":"2025-12-22T04:56:46.773024","MEAN_MOTION":15.30215424,"ECCENTRICITY":0.00013461,"INCLINATION":53.16,"RA_OF_ASC_NODE":322.6697,"ARG_OF_PERICENTER":89.2922,"MEAN_ANOMALY":270.8233,"EPHEMERIS_TYPE":0,"CLASSIFICATION_TYPE":"U","NORAD_CAT_ID":62763,"ELEMENT_SET_NO":999,"REV_AT_EPOCH":5261,"BSTAR":0.0008711008,"MEAN_MOTION_DOT":0.00025541,"MEAN_MOTION_DDOT":0},{"OBJECT_NAME":"STARLINK-33579","OBJECT_ID":"2025-015G","EPOCH":"2025-12-22T03:28:38.587584","MEAN_MOTION":15.30210371,"ECCENTRICITY":0.00011533,"INCLINATION":53.1607,"RA_OF_ASC_NODE":322.2933,"ARG_OF_PERICENTER":85.8328,"MEAN_ANOMALY":274.2804,"EPHEMERIS_TYPE":0,"CLASSIFICATION_TYPE":"U","NORAD_CAT_ID":62764,"ELEMENT_SET_NO":999,"REV_AT_EPOCH":5261,"BSTAR":0.0007313733,"MEAN_MOTION_DOT":0.00021371,"MEAN_MOTION_DDOT":0},{"OBJECT_NAME":"STARLINK-33592","OBJECT_ID":"2025-015H","EPOCH":"2025-12-22T07:37:30.416160","MEAN_MOTION":15.30193859,"ECCENTRICITY":9.835e-5,"INCLINATION":53.1621,"RA_OF_ASC_NODE":321.9468,"ARG_OF_PERICENTER":63.8263,"MEAN_ANOMALY":296.2839,"EPHEMERIS_TYPE":0,"CLASSIFICATION_TYPE":"U","NORAD_CAT_ID":62765,"ELEMENT_SET_NO":999,"REV_AT_EPOCH":5250,"BSTAR":0.00098430787,"MEAN_MOTION_DOT":0.00028901,"MEAN_MOTION_DDOT":0},{"OBJECT_NAME":"STARLINK-33595","OBJECT_ID":"2025-015J","EPOCH":"2025-12-22T05:27:00.410976","MEAN_MOTION":15.30223668,"ECCENTRICITY":0.00011543,"INCLINATION":53.1613,"RA_OF_ASC_NODE":322.0965,"ARG_OF_PERICENTER":94.9255,"MEAN_ANOMALY":265.1877,"EPHEMERIS_TYPE":0,"CLASSIFICATION_TYPE":"U","NORAD_CAT_ID":62766,"ELEMENT_SET_NO":999,"REV_AT_EPOCH":5262,"BSTAR":0.0010624311,"MEAN_MOTION_DOT":0.00031262,"MEAN_MOTION_DDOT":0},{"OBJECT_NAME":"STARLINK-33572","OBJECT_ID":"2025-015K","EPOCH":"2025-12-22T04:15:46.923552","MEAN_MOTION":15.30204706,"ECCENTRICITY":0.00018879,"INCLINATION":53.1624,"RA_OF_ASC_NODE":322.4967,"ARG_OF_PERICENTER":78.7155,"MEAN_ANOMALY":281.4058,"EPHEMERIS_TYPE":0,"CLASSIFICATION_TYPE":"U","NORAD_CAT_ID":62767,"ELEMENT_SET_NO":999,"REV_AT_EPOCH":5255,"BSTAR":0.0015061371,"MEAN_MOTION_DOT":0.00044523,"MEAN_MOTION_DDOT":0},{"OBJECT_NAME":"STARLINK-33601","OBJECT_ID":"2025-015L","EPOCH":"2025-12-22T05:40:41.034720","MEAN_MOTION":15.30225694,"ECCENTRICITY":9.209e-5,"INCLINATION":53.1631,"RA_OF_ASC_NODE":322.1542,"ARG_OF_PERICENTER":96.7358,"MEAN_ANOMALY":263.3748,"EPHEMERIS_TYPE":0,"CLASSIFICATION_TYPE":"U","NORAD_CAT_ID":62768,"ELEMENT_SET_NO":999,"REV_AT_EPOCH":5262,"BSTAR":0.0013263283,"MEAN_MOTION_DOT":0.00039161,"MEAN_MOTION_DDOT":0}]
